{"type": "FeatureCollection", "features": [ {"type": "Feature", "properties": {"norad_id": 66413, "name": "HULIANWANG DIGUI 13B", "group": "last-30-days", "lat": -29.298899328588373, "lon": 154.08630329198473, "alt_km": 819.0421257238404, "timestamp": "2025-12-02T07:10:07.865723+00:00", "meta": {"OBJECT_NAME": "HULIANWANG DIGUI 13B", "OBJECT_ID": "2025-258B", "EPOCH": "2025-12-01T14:58:34.968576", "MEAN_MOTION": 14.23480813, "ECCENTRICITY": 0.00133902, "INCLINATION": 50.0007, "RA_OF_ASC_NODE": 308.8171, "ARG_OF_PERICENTER": 319.2338, "MEAN_ANOMALY": 40.7573, "EPHEMERIS_TYPE": 0, "CLASSIFICATION_TYPE": "U", "NORAD_CAT_ID": 66413, "ELEMENT_SET_NO": 999, "REV_AT_EPOCH": 307, "BSTAR": 5.7816598e-05, "MEAN_MOTION_DOT": -2.7e-07, "MEAN_MOTION_DDOT": 0}, "tle": {"line1": "1 66413U 25258B   25335.62401584 -.00000027  00000+0  57817-4 0  9991", "line2": "2 66413  50.0007 308.8171 0013390 319.2338  40.7573 14.23480813  3077"}}, "geometry": {"type": "Point", "coordinates": [154.08630329198473, -29.298899328588373]}}, {"type": "Feature", "properties": {"norad_id": 66414, "name": "HULIANWANG DIGUI 13C", "group": "last-30-days", "lat": -39.28564566633086, "lon": 169.33787162030498, "alt_km": 816.5420725681988, "timestamp": "2025-12-02T07:10:07.865733+00:00", "meta": {"OBJECT_NAME": "HULIANWANG DIGUI 13C", "OBJECT_ID": "2025-258C", "EPOCH": "2025-12-01T14:54:05.131872", "MEAN_MOTION": 14.23506333, "ECCENTRICITY": 0.00135778, "INCLINATION": 50.0044, "RA_OF_ASC_NODE": 308.8152, "ARG_OF_PERICENTER": 317.4501, "MEAN_ANOMALY": 42.5359, "EPHEMERIS_TYPE": 0, "CLASSIFICATION_TYPE": "U", "NORAD_CAT_ID": 66414, "ELEMENT_SET_NO": 999, "REV_AT_EPOCH": 307, "BSTAR": 8.1567509e-05, "MEAN_MOTION_DOT": 2.8e-07, "MEAN_MOTION_DDOT": 0}, "tle": {"line1": "1 66414U 25258C   25335.62089273  .00000028  00000+0  81568-4 0  9999", "line2": "2 66414  50.0044 308.8152 0013577 317.4501  42.5359 14.23506333  3075"}}, "geometry": {"type": "Point", "coordinates": [169.33787162030498, -39.28564566633086]}}, {"type": "Feature", "properties": {"norad_id": 66415, "name": "HULIANWANG DIGUI 13D", "group": "last-30-days", "lat": -49.83060529124133, "lon": -150.11520261108154, "alt_km": 813.2919407751015, "timestamp": "2025-12-02T07:10:07.865743+00:00", "meta": {"OBJECT_NAME": "HULIANWANG DIGUI 13D", "OBJECT_ID": "2025-258D", "EPOCH": "2025-12-01T14:45:32.986368", "MEAN_MOTION": 14.23494564, "ECCENTRICITY": 0.00133432, "INCLINATION": 50.0046, "RA_OF_ASC_NODE": 308.7801, "ARG_OF_PERICENTER": 324.2913, "MEAN_ANOMALY": 35.7106, "EPHEMERIS_TYPE": 0, "CLASSIFICATION_TYPE": "U", "NORAD_CAT_ID": 66415, "ELEMENT_SET_NO": 999, "REV_AT_EPOCH": 307, "BSTAR": 0.00011732974, "MEAN_MOTION_DOT": 1.09e-06, "MEAN_MOTION_DDOT": 0}, "tle": {"line1": "1 66415U 25258D   25335.61496512  .00000109  00000+0  11733-3 0  9993", "line2": "2 66415  50.0046 308.7801 0013343 324.2913  35.7106 14.23494564  3078"}}, "geometry": {"type": "Point", "coordinates": [-150.11520261108154, -49.83060529124133]}}, {"type": "Feature", "properties": {"norad_id": 66416, "name": "HULIANWANG DIGUI 13E", "group": "last-30-days", "lat": -43.750223225992336, "lon": 179.4278207730057, "alt_km": 816.8059528225212, "timestamp": "2025-12-02T07:10:07.865756+00:00", "meta": {"OBJECT_NAME": "HULIANWANG DIGUI 13E", "OBJECT_ID": "2025-258E", "EPOCH": "2025-12-01T14:51:36.014112", "MEAN_MOTION": 14.23467601, "ECCENTRICITY": 0.00127009, "INCLINATION": 50.0046, "RA_OF_ASC_NODE": 308.8074, "ARG_OF_PERICENTER": 325.392, "MEAN_ANOMALY": 34.6165, "EPHEMERIS_TYPE": 0, "CLASSIFICATION_TYPE": "U", "NORAD_CAT_ID": 66416, "ELEMENT_SET_NO": 999, "REV_AT_EPOCH": 307, "BSTAR": 9.1313396e-05, "MEAN_MOTION_DOT": 5e-07, "MEAN_MOTION_DDOT": 0}, "tle": {"line1": "1 66416U 25258E   25335.61916683  .00000050  00000+0  91313-4 0  9998", "line2": "2 66416  50.0046 308.8074 0012700 325.3920  34.6165 14.23467601  3073"}}, "geometry": {"type": "Point", "coordinates": [179.4278207730057, -43.750223225992336]}}, {"type": "Feature", "properties": {"norad_id": 66417, "name": "HULIANWANG DIGUI 13F", "group": "last-30-days", "lat": -46.558968267786994, "lon": -171.63613362336795, "alt_km": 815.597798994324, "timestamp": "2025-12-02T07:10:07.865766+00:00", "meta": {"OBJECT_NAME": "HULIANWANG DIGUI 13F", "OBJECT_ID": "2025-258F", "EPOCH": "2025-12-01T14:49:39.737856", "MEAN_MOTION": 14.23475385, "ECCENTRICITY": 0.00123727, "INCLINATION": 49.9998, "RA_OF_ASC_NODE": 308.7777, "ARG_OF_PERICENTER": 323.6504, "MEAN_ANOMALY": 36.3568, "EPHEMERIS_TYPE": 0, "CLASSIFICATION_TYPE": "U", "NORAD_CAT_ID": 66417, "ELEMENT_SET_NO": 999, "REV_AT_EPOCH": 307, "BSTAR": 0.00010171301, "MEAN_MOTION_DOT": 7.4e-07, "MEAN_MOTION_DDOT": 0}, "tle": {"line1": "1 66417U 25258F   25335.61782104  .00000074  00000+0  10171-3 0  9996", "line2": "2 66417  49.9998 308.7777 0012372 323.6504  36.3568 14.23475385  3074"}}, "geometry": {"type": "Point", "coordinates": [-171.63613362336795, -46.558968267786994]}}, {"type": "Feature", "properties": {"norad_id": 66418, "name": "HULIANWANG DIGUI 13G", "group": "last-30-days", "lat": -49.89588308583934, "lon": -139.63209513404905, "alt_km": 812.1793530586428, "timestamp": "2025-12-02T07:10:07.865776+00:00", "meta": {"OBJECT_NAME": "HULIANWANG DIGUI 13G", "OBJECT_ID": "2025-258G", "EPOCH": "2025-12-01T14:43:38.767296", "MEAN_MOTION": 14.23486652, "ECCENTRICITY": 0.00124604, "INCLINATION": 50.0008, "RA_OF_ASC_NODE": 308.7573, "ARG_OF_PERICENTER": 319.661, "MEAN_ANOMALY": 40.3377, "EPHEMERIS_TYPE": 0, "CLASSIFICATION_TYPE": "U", "NORAD_CAT_ID": 66418, "ELEMENT_SET_NO": 999, "REV_AT_EPOCH": 307, "BSTAR": 0.00012181867, "MEAN_MOTION_DOT": 1.2e-06, "MEAN_MOTION_DDOT": 0}, "tle": {"line1": "1 66418U 25258G   25335.61364314  .00000120  00000+0  12182-3 0  9992", "line2": "2 66418  50.0008 308.7573 0012460 319.6610  40.3377 14.23486652  3077"}}, "geometry": {"type": "Point", "coordinates": [-139.63209513404905, -49.89588308583934]}}, {"type": "Feature", "properties": {"norad_id": 66419, "name": "HULIANWANG DIGUI 13H", "group": "last-30-days", "lat": -48.87036800920307, "lon": -128.18584110756947, "alt_km": 811.5717691042273, "timestamp": "2025-12-02T07:10:07.865786+00:00", "meta": {"OBJECT_NAME": "HULIANWANG DIGUI 13H", "OBJECT_ID": "2025-258H", "EPOCH": "2025-12-01T14:41:32.805600", "MEAN_MOTION": 14.23503812, "ECCENTRICITY": 0.00120646, "INCLINATION": 50.0006, "RA_OF_ASC_NODE": 308.7466, "ARG_OF_PERICENTER": 320.7122, "MEAN_ANOMALY": 39.2914, "EPHEMERIS_TYPE": 0, "CLASSIFICATION_TYPE": "U", "NORAD_CAT_ID": 66419, "ELEMENT_SET_NO": 999, "REV_AT_EPOCH": 307, "BSTAR": 0.00012628839, "MEAN_MOTION_DOT": 1.3e-06, "MEAN_MOTION_DDOT": 0}, "tle": {"line1": "1 66419U 25258H   25335.61218525  .00000130  00000+0  12629-3 0  9992", "line2": "2 66419  50.0006 308.7466 0012064 320.7122  39.2914 14.23503812  3070"}}, "geometry": {"type": "Point", "coordinates": [-128.18584110756947, -48.87036800920307]}}, {"type": "Feature", "properties": {"norad_id": 66420, "name": "HULIANWANG DIGUI 13J", "group": "last-30-days", "lat": -47.251312817407054, "lon": -119.41329476213191, "alt_km": 812.0806189371369, "timestamp": "2025-12-02T07:10:07.865802+00:00", "meta": {"OBJECT_NAME": "HULIANWANG DIGUI 13J", "OBJECT_ID": "2025-258J", "EPOCH": "2025-12-01T14:39:49.214592", "MEAN_MOTION": 14.23471446, "ECCENTRICITY": 0.00114015, "INCLINATION": 50.0022, "RA_OF_ASC_NODE": 308.7503, "ARG_OF_PERICENTER": 327.8625, "MEAN_ANOMALY": 32.1592, "EPHEMERIS_TYPE": 0, "CLASSIFICATION_TYPE": "U", "NORAD_CAT_ID": 66420, "ELEMENT_SET_NO": 999, "REV_AT_EPOCH": 306, "BSTAR": 0.00012961559, "MEAN_MOTION_DOT": 1.37e-06, "MEAN_MOTION_DDOT": 0}, "tle": {"line1": "1 66420U 25258J   25335.61098628  .00000137  00000+0  12962-3 0  9991", "line2": "2 66420  50.0022 308.7503 0011401 327.8625  32.1592 14.23471446  3062"}}, "geometry": {"type": "Point", "coordinates": [-119.41329476213191, -47.251312817407054]}}, {"type": "Feature", "properties": {"norad_id": 66421, "name": "CZ-12 R/B", "group": "last-30-days", "lat": -23.30983264410561, "lon": 144.46635117778538, "alt_km": 707.8370884138176, "timestamp": "2025-12-02T07:10:07.865813+00:00", "meta": {"OBJECT_NAME": "CZ-12 R/B", "OBJECT_ID": "2025-258K", "EPOCH": "2025-12-01T15:13:38.024832", "MEAN_MOTION": 14.42315351, "ECCENTRICITY": 0.00645806, "INCLINATION": 49.9956, "RA_OF_ASC_NODE": 306.1367, "ARG_OF_PERICENTER": 209.4804, "MEAN_ANOMALY": 150.2468, "EPHEMERIS_TYPE": 0, "CLASSIFICATION_TYPE": "U", "NORAD_CAT_ID": 66421, "ELEMENT_SET_NO": 999, "REV_AT_EPOCH": 311, "BSTAR": 2.245898e-05, "MEAN_MOTION_DOT": -9.4e-07, "MEAN_MOTION_DDOT": 0}, "tle": {"line1": "1 66421U 25258K   25335.63446788 -.00000094  00000+0  22459-4 0  9994", "line2": "2 66421  49.9956 306.1367 0064580 209.4804 150.2468 14.42315351  3119"}}, "geometry": {"type": "Point", "coordinates": [144.46635117778538, -23.30983264410561]}}, {"type": "Feature", "properties": {"norad_id": 66422, "name": "STARLINK-35617", "group": "last-30-days", "lat": -28.88767652724974, "lon": -35.28192512554503, "alt_km": 417.9603031410252, "timestamp": "2025-12-02T07:10:07.865823+00:00", "meta": {"OBJECT_NAME": "STARLINK-35617", "OBJECT_ID": "2025-259A", "EPOCH": "2025-12-01T20:00:01.999008", "MEAN_MOTION": 15.51412574, "ECCENTRICITY": 0.0001552, "INCLINATION": 42.9993, "RA_OF_ASC_NODE": 111.1342, "ARG_OF_PERICENTER": 272.0519, "MEAN_ANOMALY": 231.9426, "EPHEMERIS_TYPE": 0, "CLASSIFICATION_TYPE": "U", "NORAD_CAT_ID": 66422, "ELEMENT_SET_NO": 999, "REV_AT_EPOCH": 452, "BSTAR": -0.022191, "MEAN_MOTION_DOT": -0.0122042, "MEAN_MOTION_DDOT": 0}, "tle": {"line1": "1 66422U 25259A   25335.83335647 -.01220420  00000+0 -22191-1 0  9998", "line2": "2 66422  42.9993 111.1342 0001552 272.0519 231.9426 15.51412574  4523"}}, "geometry": {"type": "Point", "coordinates": [-35.28192512554503, -28.88767652724974]}}]}